[
  {
    "OBJECT_NAME": "STARLINK-31750",
    "OBJECT_ID": "24074U",
    "EPOCH": "2025-11-11T04:58:11.093376",
    "MEAN_MOTION": 15.27588692,
    "ECCENTRICITY": 0.0001297,
    "INCLINATION": 43.0029,
    "RA_OF_ASC_NODE": 292.6762,
    "ARG_OF_PERICENTER": 248.8236,
    "MEAN_ANOMALY": 111.2478,
    "EPHEMERIS_TYPE": 0,
    "CLASSIFICATION_TYPE": "U",
    "NORAD_CAT_ID": 59552,
    "ELEMENT_SET_NO": 999,
    "REV_AT_EPOCH": 8789,
    "BSTAR": 0.0001749,
    "MEAN_MOTION_DOT": 4.555e-05,
    "MEAN_MOTION_DDOT": 0.0,
    "TLE_LINE1": "1 59552U 24074U   25315.20707284  .00004555  00000+0  17490-3 0  9991",
    "TLE_LINE2": "2 59552  43.0029 292.6762 0001297 248.8236 111.2478 15.27588692 87891",
    "COMMENT": "Grouped by shell and plane from TLE"
  },
  {
    "OBJECT_NAME": "STARLINK-31723",
    "OBJECT_ID": "24074V",
    "EPOCH": "2025-11-11T00:10:10.517952",
    "MEAN_MOTION": 15.2759254,
    "ECCENTRICITY": 4.41e-05,
    "INCLINATION": 43.0024,
    "RA_OF_ASC_NODE": 293.7569,
    "ARG_OF_PERICENTER": 230.8637,
    "MEAN_ANOMALY": 129.2175,
    "EPHEMERIS_TYPE": 0,
    "CLASSIFICATION_TYPE": "U",
    "NORAD_CAT_ID": 59553,
    "ELEMENT_SET_NO": 999,
    "REV_AT_EPOCH": 8786,
    "BSTAR": 0.0,
    "MEAN_MOTION_DOT": -1.089e-05,
    "MEAN_MOTION_DDOT": 0.0,
    "TLE_LINE1": "1 59553U 24074V   25315.00706618 -.00001089  00000+0 -30071-4 0  9992",
    "TLE_LINE2": "2 59553  43.0024 293.7569 0000441 230.8637 129.2175 15.27592540 87867",
    "COMMENT": "Grouped by shell and plane from TLE"
  },
  {
    "OBJECT_NAME": "STARLINK-31730",
    "OBJECT_ID": "24074X",
    "EPOCH": "2025-11-11T07:09:21.452544",
    "MEAN_MOTION": 15.27586138,
    "ECCENTRICITY": 6.07e-05,
    "INCLINATION": 43.0017,
    "RA_OF_ASC_NODE": 292.499,
    "ARG_OF_PERICENTER": 337.1385,
    "MEAN_ANOMALY": 22.944,
    "EPHEMERIS_TYPE": 0,
    "CLASSIFICATION_TYPE": "U",
    "NORAD_CAT_ID": 59555,
    "ELEMENT_SET_NO": 999,
    "REV_AT_EPOCH": 8790,
    "BSTAR": 6.7716e-05,
    "MEAN_MOTION_DOT": 1.602e-05,
    "MEAN_MOTION_DDOT": 0.0,
    "TLE_LINE1": "1 59555U 24074X   25315.29816496  .00001602  00000+0  67716-4 0  9996",
    "TLE_LINE2": "2 59555  43.0017 292.4990 0000607 337.1385  22.9440 15.27586138 87905",
    "COMMENT": "Grouped by shell and plane from TLE"
  },
  {
    "OBJECT_NAME": "STARLINK-31718",
    "OBJECT_ID": "24074Y",
    "EPOCH": "2025-11-11T00:36:05.574528",
    "MEAN_MOTION": 15.27582411,
    "ECCENTRICITY": 0.0001191,
    "INCLINATION": 43.0015,
    "RA_OF_ASC_NODE": 293.8905,
    "ARG_OF_PERICENTER": 263.0402,
    "MEAN_ANOMALY": 97.0314,
    "EPHEMERIS_TYPE": 0,
    "CLASSIFICATION_TYPE": "U",
    "NORAD_CAT_ID": 59556,
    "ELEMENT_SET_NO": 999,
    "REV_AT_EPOCH": 8786,
    "BSTAR": 0.00034366,
    "MEAN_MOTION_DOT": 9.207e-05,
    "MEAN_MOTION_DDOT": 0.0,
    "TLE_LINE1": "1 59556U 24074Y   25315.02506452  .00009207  00000+0  34366-3 0  9999",
    "TLE_LINE2": "2 59556  43.0015 293.8905 0001191 263.0402  97.0314 15.27582411 87869",
    "COMMENT": "Grouped by shell and plane from TLE"
  },
  {
    "OBJECT_NAME": "STARLINK-32376",
    "OBJECT_ID": "24196A",
    "EPOCH": "2025-11-11T05:23:15.058176",
    "MEAN_MOTION": 15.30210916,
    "ECCENTRICITY": 0.0001231,
    "INCLINATION": 53.1612,
    "RA_OF_ASC_NODE": 291.2712,
    "ARG_OF_PERICENTER": 85.6472,
    "MEAN_ANOMALY": 274.4669,
    "EPHEMERIS_TYPE": 0,
    "CLASSIFICATION_TYPE": "U",
    "NORAD_CAT_ID": 61707,
    "ELEMENT_SET_NO": 999,
    "REV_AT_EPOCH": 5903,
    "BSTAR": 0.0,
    "MEAN_MOTION_DOT": -2.473e-05,
    "MEAN_MOTION_DDOT": 0.0,
    "TLE_LINE1": "1 61707U 24196A   25315.22447984 -.00002473  00000+0 -71368-4 0  9995",
    "TLE_LINE2": "2 61707  53.1612 291.2712 0001231  85.6472 274.4669 15.30210916 59037",
    "COMMENT": "Grouped by shell and plane from TLE"
  },
  {
    "OBJECT_NAME": "STARLINK-32402",
    "OBJECT_ID": "24196B",
    "EPOCH": "2025-11-11T06:04:16.333248",
    "MEAN_MOTION": 15.30207276,
    "ECCENTRICITY": 0.0001197,
    "INCLINATION": 53.161,
    "RA_OF_ASC_NODE": 291.4506,
    "ARG_OF_PERICENTER": 93.8522,
    "MEAN_ANOMALY": 266.2616,
    "EPHEMERIS_TYPE": 0,
    "CLASSIFICATION_TYPE": "U",
    "NORAD_CAT_ID": 61708,
    "ELEMENT_SET_NO": 999,
    "REV_AT_EPOCH": 5902,
    "BSTAR": 0.00014628,
    "MEAN_MOTION_DOT": 3.977e-05,
    "MEAN_MOTION_DDOT": 0.0,
    "TLE_LINE1": "1 61708U 24196B   25315.25296682  .00003977  00000+0  14628-3 0  9999",
    "TLE_LINE2": "2 61708  53.1610 291.4506 0001197  93.8522 266.2616 15.30207276 59022",
    "COMMENT": "Grouped by shell and plane from TLE"
  },
  {
    "OBJECT_NAME": "STARLINK-32314",
    "OBJECT_ID": "24196C",
    "EPOCH": "2025-11-11T07:17:03.754752",
    "MEAN_MOTION": 15.30205361,
    "ECCENTRICITY": 0.0001182,
    "INCLINATION": 53.1596,
    "RA_OF_ASC_NODE": 291.0527,
    "ARG_OF_PERICENTER": 99.3198,
    "MEAN_ANOMALY": 260.7936,
    "EPHEMERIS_TYPE": 0,
    "CLASSIFICATION_TYPE": "U",
    "NORAD_CAT_ID": 61709,
    "ELEMENT_SET_NO": 999,
    "REV_AT_EPOCH": 5903,
    "BSTAR": 0.00042062,
    "MEAN_MOTION_DOT": 0.00012121,
    "MEAN_MOTION_DDOT": 0.0,
    "TLE_LINE1": "1 61709U 24196C   25315.30351568  .00012121  00000+0  42062-3 0  9995",
    "TLE_LINE2": "2 61709  53.1596 291.0527 0001182  99.3198 260.7936 15.30205361 59037",
    "COMMENT": "Grouped by shell and plane from TLE"
  },
  {
    "OBJECT_NAME": "STARLINK-32404",
    "OBJECT_ID": "24196D",
    "EPOCH": "2025-11-11T05:00:37.384992",
    "MEAN_MOTION": 15.30190317,
    "ECCENTRICITY": 0.0001456,
    "INCLINATION": 53.1608,
    "RA_OF_ASC_NODE": 291.8842,
    "ARG_OF_PERICENTER": 94.1136,
    "MEAN_ANOMALY": 266.0032,
    "EPHEMERIS_TYPE": 0,
    "CLASSIFICATION_TYPE": "U",
    "NORAD_CAT_ID": 61710,
    "ELEMENT_SET_NO": 999,
    "REV_AT_EPOCH": 5901,
    "BSTAR": 9.197900000000001e-05,
    "MEAN_MOTION_DOT": 2.365e-05,
    "MEAN_MOTION_DDOT": 0.0,
    "TLE_LINE1": "1 61710U 24196D   25315.20876603  .00002365  00000+0  91979-4 0  9999",
    "TLE_LINE2": "2 61710  53.1608 291.8842 0001456  94.1136 266.0032 15.30190317 59018",
    "COMMENT": "Grouped by shell and plane from TLE"
  },
  {
    "OBJECT_NAME": "STARLINK-32312",
    "OBJECT_ID": "24196E",
    "EPOCH": "2025-11-11T07:06:23.633568",
    "MEAN_MOTION": 15.30216852,
    "ECCENTRICITY": 0.000114,
    "INCLINATION": 53.1609,
    "RA_OF_ASC_NODE": 291.0053,
    "ARG_OF_PERICENTER": 79.3075,
    "MEAN_ANOMALY": 280.8055,
    "EPHEMERIS_TYPE": 0,
    "CLASSIFICATION_TYPE": "U",
    "NORAD_CAT_ID": 61711,
    "ELEMENT_SET_NO": 999,
    "REV_AT_EPOCH": 5903,
    "BSTAR": 0.00016341,
    "MEAN_MOTION_DOT": 4.486e-05,
    "MEAN_MOTION_DDOT": 0.0,
    "TLE_LINE1": "1 61711U 24196E   25315.29610687  .00004486  00000+0  16341-3 0  9992",
    "TLE_LINE2": "2 61711  53.1609 291.0053 0001140  79.3075 280.8055 15.30216852 59037",
    "COMMENT": "Grouped by shell and plane from TLE"
  },
  {
    "OBJECT_NAME": "STARLINK-32343",
    "OBJECT_ID": "24196F",
    "EPOCH": "2025-11-11T06:19:28.856352",
    "MEAN_MOTION": 15.30192727,
    "ECCENTRICITY": 0.000138,
    "INCLINATION": 53.1616,
    "RA_OF_ASC_NODE": 291.517,
    "ARG_OF_PERICENTER": 88.3482,
    "MEAN_ANOMALY": 271.7677,
    "EPHEMERIS_TYPE": 0,
    "CLASSIFICATION_TYPE": "U",
    "NORAD_CAT_ID": 61712,
    "ELEMENT_SET_NO": 999,
    "REV_AT_EPOCH": 5902,
    "BSTAR": 4.1347e-05,
    "MEAN_MOTION_DOT": 8.65e-06,
    "MEAN_MOTION_DDOT": 0.0,
    "TLE_LINE1": "1 61712U 24196F   25315.26352843  .00000865  00000+0  41347-4 0  9999",
    "TLE_LINE2": "2 61712  53.1616 291.5170 0001380  88.3482 271.7677 15.30192727 59021",
    "COMMENT": "Grouped by shell and plane from TLE"
  },
  {
    "OBJECT_NAME": "STARLINK-32467",
    "OBJECT_ID": "24196G",
    "EPOCH": "2025-11-11T05:17:19.898016",
    "MEAN_MOTION": 15.30198653,
    "ECCENTRICITY": 0.0001154,
    "INCLINATION": 53.1607,
    "RA_OF_ASC_NODE": 291.9555,
    "ARG_OF_PERICENTER": 92.0284,
    "MEAN_ANOMALY": 268.0849,
    "EPHEMERIS_TYPE": 0,
    "CLASSIFICATION_TYPE": "U",
    "NORAD_CAT_ID": 61713,
    "ELEMENT_SET_NO": 999,
    "REV_AT_EPOCH": 5901,
    "BSTAR": 9.6106e-05,
    "MEAN_MOTION_DOT": 2.488e-05,
    "MEAN_MOTION_DDOT": 0.0,
    "TLE_LINE1": "1 61713U 24196G   25315.22036919  .00002488  00000+0  96106-4 0  9995",
    "TLE_LINE2": "2 61713  53.1607 291.9555 0001154  92.0284 268.0849 15.30198653 59017",
    "COMMENT": "Grouped by shell and plane from TLE"
  },
  {
    "OBJECT_NAME": "STARLINK-32440",
    "OBJECT_ID": "24196H",
    "EPOCH": "2025-11-11T06:10:22.608768",
    "MEAN_MOTION": 15.30169149,
    "ECCENTRICITY": 0.0001154,
    "INCLINATION": 53.1628,
    "RA_OF_ASC_NODE": 291.4725,
    "ARG_OF_PERICENTER": 73.431,
    "MEAN_ANOMALY": 286.6817,
    "EPHEMERIS_TYPE": 0,
    "CLASSIFICATION_TYPE": "U",
    "NORAD_CAT_ID": 61714,
    "ELEMENT_SET_NO": 999,
    "REV_AT_EPOCH": 5902,
    "BSTAR": 4.5388e-05,
    "MEAN_MOTION_DOT": 9.84e-06,
    "MEAN_MOTION_DDOT": 0.0,
    "TLE_LINE1": "1 61714U 24196H   25315.25720612  .00000984  00000+0  45388-4 0  9994",
    "TLE_LINE2": "2 61714  53.1628 291.4725 0001154  73.4310 286.6817 15.30169149 59028",
    "COMMENT": "Grouped by shell and plane from TLE"
  },
  {
    "OBJECT_NAME": "STARLINK-32459",
    "OBJECT_ID": "24196J",
    "EPOCH": "2025-11-11T05:52:07.638240",
    "MEAN_MOTION": 15.30196583,
    "ECCENTRICITY": 0.0001657,
    "INCLINATION": 53.1623,
    "RA_OF_ASC_NODE": 291.3984,
    "ARG_OF_PERICENTER": 77.5763,
    "MEAN_ANOMALY": 282.5423,
    "EPHEMERIS_TYPE": 0,
    "CLASSIFICATION_TYPE": "U",
    "NORAD_CAT_ID": 61715,
    "ELEMENT_SET_NO": 999,
    "REV_AT_EPOCH": 5902,
    "BSTAR": 8.184e-05,
    "MEAN_MOTION_DOT": 2.065e-05,
    "MEAN_MOTION_DDOT": 0.0,
    "TLE_LINE1": "1 61715U 24196J   25315.24453285  .00002065  00000+0  81840-4 0  9998",
    "TLE_LINE2": "2 61715  53.1623 291.3984 0001657  77.5763 282.5423 15.30196583 59025",
    "COMMENT": "Grouped by shell and plane from TLE"
  }
]